CCSDS_OMM_VERS = 2.0
CREATION_DATE  = 
ORIGINATOR     = 

OBJECT_NAME    = STARLINK-36455
OBJECT_ID      = 2026-005Q
CENTER_NAME    = EARTH
REF_FRAME      = TEME
TIME_SYSTEM    = UTC
MEAN_ELEMENT_THEORY = SGP/SGP4

EPOCH          = 2026-01-26T06:00:02.000160
MEAN_MOTION    = 15.75529412
ECCENTRICITY   = .00013225
INCLINATION    = 43.0002
RA_OF_ASC_NODE = 123.1939
ARG_OF_PERICENTER = 243.3620
MEAN_ANOMALY   = 67.1040

EPHEMERIS_TYPE = 0
CLASSIFICATION_TYPE = U
NORAD_CAT_ID   = 67418
ELEMENT_SET_NO = 999
REV_AT_EPOCH   = 336
BSTAR          = -.52697508E-2
MEAN_MOTION_DOT = -.757192E-2
MEAN_MOTION_DDOT = 0

CCSDS_OMM_VERS = 2.0
CREATION_DATE  = 
ORIGINATOR     = 

OBJECT_NAME    = STARLINK-36424
OBJECT_ID      = 2026-005R
CENTER_NAME    = EARTH
REF_FRAME      = TEME
TIME_SYSTEM    = UTC
MEAN_ELEMENT_THEORY = SGP/SGP4

EPOCH          = 2026-01-26T06:00:02.000160
MEAN_MOTION    = 15.75417878
ECCENTRICITY   = .00012184
INCLINATION    = 43.0000
RA_OF_ASC_NODE = 123.1891
ARG_OF_PERICENTER = 263.8650
MEAN_ANOMALY   = 48.5771

EPHEMERIS_TYPE = 0
CLASSIFICATION_TYPE = U
NORAD_CAT_ID   = 67419
ELEMENT_SET_NO = 999
REV_AT_EPOCH   = 336
BSTAR          = -.4012103E-2
MEAN_MOTION_DOT = -.585476E-2
MEAN_MOTION_DDOT = 0

CCSDS_OMM_VERS = 2.0
CREATION_DATE  = 
ORIGINATOR     = 

OBJECT_NAME    = STARLINK-35564
OBJECT_ID      = 2026-005S
CENTER_NAME    = EARTH
REF_FRAME      = TEME
TIME_SYSTEM    = UTC
MEAN_ELEMENT_THEORY = SGP/SGP4

EPOCH          = 2026-01-26T06:00:02.000160
MEAN_MOTION    = 15.75364799
ECCENTRICITY   = .00014551
INCLINATION    = 43.0002
RA_OF_ASC_NODE = 123.1845
ARG_OF_PERICENTER = 263.5173
MEAN_ANOMALY   = 50.8719

EPHEMERIS_TYPE = 0
CLASSIFICATION_TYPE = U
NORAD_CAT_ID   = 67420
ELEMENT_SET_NO = 999
REV_AT_EPOCH   = 325
BSTAR          = -.31967286E-2
MEAN_MOTION_DOT = -.471756E-2
MEAN_MOTION_DDOT = 0

CCSDS_OMM_VERS = 2.0
CREATION_DATE  = 
ORIGINATOR     = 

OBJECT_NAME    = STARLINK-36431
OBJECT_ID      = 2026-005T
CENTER_NAME    = EARTH
REF_FRAME      = TEME
TIME_SYSTEM    = UTC
MEAN_ELEMENT_THEORY = SGP/SGP4

EPOCH          = 2026-01-26T06:00:02.000160
MEAN_MOTION    = 15.75326014
ECCENTRICITY   = .00015388
INCLINATION    = 43.0004
RA_OF_ASC_NODE = 123.1795
ARG_OF_PERICENTER = 267.4568
MEAN_ANOMALY   = 48.8778

EPHEMERIS_TYPE = 0
CLASSIFICATION_TYPE = U
NORAD_CAT_ID   = 67421
ELEMENT_SET_NO = 999
REV_AT_EPOCH   = 315
BSTAR          = -.28989917E-2
MEAN_MOTION_DOT = -.429264E-2
MEAN_MOTION_DDOT = 0

CCSDS_OMM_VERS = 2.0
CREATION_DATE  = 
ORIGINATOR     = 

OBJECT_NAME    = STARLINK-36418
OBJECT_ID      = 2026-005U
CENTER_NAME    = EARTH
REF_FRAME      = TEME
TIME_SYSTEM    = UTC
MEAN_ELEMENT_THEORY = SGP/SGP4

EPOCH          = 2026-01-26T06:00:02.000160
MEAN_MOTION    = 15.75318627
ECCENTRICITY   = .00011999
INCLINATION    = 43.0000
RA_OF_ASC_NODE = 123.1747
ARG_OF_PERICENTER = 251.9074
MEAN_ANOMALY   = 66.3473

EPHEMERIS_TYPE = 0
CLASSIFICATION_TYPE = U
NORAD_CAT_ID   = 67422
ELEMENT_SET_NO = 999
REV_AT_EPOCH   = 331
BSTAR          = -.28362185E-2
MEAN_MOTION_DOT = -.420251E-2
MEAN_MOTION_DDOT = 0

CCSDS_OMM_VERS = 2.0
CREATION_DATE  = 
ORIGINATOR     = 

OBJECT_NAME    = STARLINK-36465
OBJECT_ID      = 2026-005V
CENTER_NAME    = EARTH
REF_FRAME      = TEME
TIME_SYSTEM    = UTC
MEAN_ELEMENT_THEORY = SGP/SGP4

EPOCH          = 2026-01-26T06:00:02.000160
MEAN_MOTION    = 15.75239457
ECCENTRICITY   = .00013171
INCLINATION    = 43.0005
RA_OF_ASC_NODE = 123.1699
ARG_OF_PERICENTER = 276.3629
MEAN_ANOMALY   = 43.8528

EPHEMERIS_TYPE = 0
CLASSIFICATION_TYPE = U
NORAD_CAT_ID   = 67423
ELEMENT_SET_NO = 999
REV_AT_EPOCH   = 310
BSTAR          = -.20721202E-2
MEAN_MOTION_DOT = -.310065E-2
MEAN_MOTION_DDOT = 0

CCSDS_OMM_VERS = 2.0
CREATION_DATE  = 
ORIGINATOR     = 

OBJECT_NAME    = STARLINK-36362
OBJECT_ID      = 2026-005W
CENTER_NAME    = EARTH
REF_FRAME      = TEME
TIME_SYSTEM    = UTC
MEAN_ELEMENT_THEORY = SGP/SGP4

EPOCH          = 2026-01-26T06:00:02.000160
MEAN_MOTION    = 15.75177290
ECCENTRICITY   = .00010854
INCLINATION    = 43.0003
RA_OF_ASC_NODE = 123.1651
ARG_OF_PERICENTER = 271.2030
MEAN_ANOMALY   = 50.9629

EPHEMERIS_TYPE = 0
CLASSIFICATION_TYPE = U
NORAD_CAT_ID   = 67424
ELEMENT_SET_NO = 999
REV_AT_EPOCH   = 336
BSTAR          = -.1458494E-2
MEAN_MOTION_DOT = -.220087E-2
MEAN_MOTION_DDOT = 0

CCSDS_OMM_VERS = 2.0
CREATION_DATE  = 
ORIGINATOR     = 

OBJECT_NAME    = STARLINK-36447
OBJECT_ID      = 2026-005X
CENTER_NAME    = EARTH
REF_FRAME      = TEME
TIME_SYSTEM    = UTC
MEAN_ELEMENT_THEORY = SGP/SGP4

EPOCH          = 2026-01-26T06:00:02.000160
MEAN_MOTION    = 15.75125123
ECCENTRICITY   = .00015131
INCLINATION    = 43.0003
RA_OF_ASC_NODE = 123.1600
ARG_OF_PERICENTER = 275.1112
MEAN_ANOMALY   = 48.9965

EPHEMERIS_TYPE = 0
CLASSIFICATION_TYPE = U
NORAD_CAT_ID   = 67425
ELEMENT_SET_NO = 999
REV_AT_EPOCH   = 336
BSTAR          = -.88776449E-3
MEAN_MOTION_DOT = -.135191E-2
MEAN_MOTION_DDOT = 0

CCSDS_OMM_VERS = 2.0
CREATION_DATE  = 
ORIGINATOR     = 

OBJECT_NAME    = STARLINK-36146
OBJECT_ID      = 2026-005Y
CENTER_NAME    = EARTH
REF_FRAME      = TEME
TIME_SYSTEM    = UTC
MEAN_ELEMENT_THEORY = SGP/SGP4

EPOCH          = 2026-01-26T06:00:02.000160
MEAN_MOTION    = 15.75099007
ECCENTRICITY   = .00015514
INCLINATION    = 43.0002
RA_OF_ASC_NODE = 123.1548
ARG_OF_PERICENTER = 259.8647
MEAN_ANOMALY   = 66.1777

EPHEMERIS_TYPE = 0
CLASSIFICATION_TYPE = U
NORAD_CAT_ID   = 67426
ELEMENT_SET_NO = 999
REV_AT_EPOCH   = 331
BSTAR          = -.70162684E-3
MEAN_MOTION_DOT = -.107176E-2
MEAN_MOTION_DDOT = 0

CCSDS_OMM_VERS = 2.0
CREATION_DATE  = 
ORIGINATOR     = 

OBJECT_NAME    = STARLINK-36459
OBJECT_ID      = 2026-005Z
CENTER_NAME    = EARTH
REF_FRAME      = TEME
TIME_SYSTEM    = UTC
MEAN_ELEMENT_THEORY = SGP/SGP4

EPOCH          = 2026-01-26T06:00:02.000160
MEAN_MOTION    = 15.75088686
ECCENTRICITY   = .00015051
INCLINATION    = 43.0001
RA_OF_ASC_NODE = 123.1497
ARG_OF_PERICENTER = 263.4936
MEAN_ANOMALY   = 64.4725

EPHEMERIS_TYPE = 0
CLASSIFICATION_TYPE = U
NORAD_CAT_ID   = 67427
ELEMENT_SET_NO = 999
REV_AT_EPOCH   = 328
BSTAR          = -.62075343E-3
MEAN_MOTION_DOT = -.9497E-3
MEAN_MOTION_DDOT = 0

CCSDS_OMM_VERS = 2.0
CREATION_DATE  = 
ORIGINATOR     = 

OBJECT_NAME    = STARLINK-36464
OBJECT_ID      = 2026-005AA
CENTER_NAME    = EARTH
REF_FRAME      = TEME
TIME_SYSTEM    = UTC
MEAN_ELEMENT_THEORY = SGP/SGP4

EPOCH          = 2026-01-26T06:00:02.000160
MEAN_MOTION    = 15.75009550
ECCENTRICITY   = .00013615
INCLINATION    = 43.0003
RA_OF_ASC_NODE = 123.1400
ARG_OF_PERICENTER = 284.5916
MEAN_ANOMALY   = 47.2272

EPHEMERIS_TYPE = 0
CLASSIFICATION_TYPE = U
NORAD_CAT_ID   = 67428
ELEMENT_SET_NO = 999
REV_AT_EPOCH   = 336
BSTAR          = .33073548E-3
MEAN_MOTION_DOT = .50565E-3
MEAN_MOTION_DDOT = 0

CCSDS_OMM_VERS = 2.0
CREATION_DATE  = 
ORIGINATOR     = 

OBJECT_NAME    = STARLINK-36513
OBJECT_ID      = 2026-005AB
CENTER_NAME    = EARTH
REF_FRAME      = TEME
TIME_SYSTEM    = UTC
MEAN_ELEMENT_THEORY = SGP/SGP4

EPOCH          = 2026-01-26T06:00:02.000160
MEAN_MOTION    = 15.74955980
ECCENTRICITY   = .00020301
INCLINATION    = 43.0002
RA_OF_ASC_NODE = 123.1352
ARG_OF_PERICENTER = 276.5689
MEAN_ANOMALY   = 57.1763

EPHEMERIS_TYPE = 0
CLASSIFICATION_TYPE = U
NORAD_CAT_ID   = 67429
ELEMENT_SET_NO = 999
REV_AT_EPOCH   = 336
BSTAR          = .92160076E-3
MEAN_MOTION_DOT = .142995E-2
MEAN_MOTION_DDOT = 0

