STARLINK-36455          
1 67418U 26005Q   26026.25002315 -.00757192  00000+0 -52698-2 0  9997
2 67418  43.0002 123.1939 0001322 243.3620  67.1040 15.75529412  3364
STARLINK-36424          
1 67419U 26005R   26026.25002315 -.00585476  00000+0 -40121-2 0  9990
2 67419  43.0000 123.1891 0001218 263.8650  48.5771 15.75417878  3360
STARLINK-35564          
1 67420U 26005S   26026.25002315 -.00471756  00000+0 -31967-2 0  9995
2 67420  43.0002 123.1845 0001455 263.5173  50.8719 15.75364799  3252
STARLINK-36431          
1 67421U 26005T   26026.25002315 -.00429264  00000+0 -28990-2 0  9995
2 67421  43.0004 123.1795 0001538 267.4568  48.8778 15.75326014  3151
STARLINK-36418          
1 67422U 26005U   26026.25002315 -.00420251  00000+0 -28362-2 0  9996
2 67422  43.0000 123.1747 0001199 251.9074  66.3473 15.75318627  3314
STARLINK-36465          
1 67423U 26005V   26026.25002315 -.00310065  00000+0 -20721-2 0  9999
2 67423  43.0005 123.1699 0001317 276.3629  43.8528 15.75239457  3106
STARLINK-36362          
1 67424U 26005W   26026.25002315 -.00220087  00000+0 -14585-2 0  9995
2 67424  43.0003 123.1651 0001085 271.2030  50.9629 15.75177290  3360
STARLINK-36447          
1 67425U 26005X   26026.25002315 -.00135191  00000+0 -88776-3 0  9991
2 67425  43.0003 123.1600 0001513 275.1112  48.9965 15.75125123  3363
STARLINK-36146          
1 67426U 26005Y   26026.25002315 -.00107176  00000+0 -70163-3 0  9995
2 67426  43.0002 123.1548 0001551 259.8647  66.1777 15.75099007  3317
STARLINK-36459          
1 67427U 26005Z   26026.25002315 -.00094970  00000+0 -62075-3 0  9996
2 67427  43.0001 123.1497 0001505 263.4936  64.4725 15.75088686  3282
STARLINK-36464          
1 67428U 26005AA  26026.25002315  .00050565  00000+0  33074-3 0  9994
2 67428  43.0003 123.1400 0001361 284.5916  47.2272 15.75009550  3369
STARLINK-36513          
1 67429U 26005AB  26026.25002315  .00142995  00000+0  92160-3 0  9995
2 67429  43.0002 123.1352 0002030 276.5689  57.1763 15.74955980  3368
